NORAD_CAT_ID,OBJECT_NAME,OBJECT_TYPE,EPOCH,MEAN_MOTION,ECCENTRICITY,INCLINATION,RA_OF_ASC_NODE,ARG_OF_PERICENTER,MEAN_ANOMALY,BSTAR,MEAN_MOTION_DOT,MEAN_MOTION_DDOT,TLE_LINE0,TLE_LINE1,TLE_LINE2,SEMIMAJOR_AXIS,PERIOD,APOGEE,PERIGEE,DECAYED
53827.0,STARLINK-4764,PAYLOAD,2023-05-21 21:32:32,15.08839465,0.0001163,53.2154,215.6758,91.5428,268.5697,-5.2843e-05,-1.129e-05,0.0,0 STARLINK-4764,1 53827U 22114K   23141.89760176 -.00001129  00000-0 -52843-4 0  9991,2 53827  53.2154 215.6758 0001163  91.5428 268.5697 15.08839465 38420,6917.882,95.438,540.552,538.942,0.0
53827.0,STARLINK-4764,PAYLOAD,2023-05-22 03:54:05,15.08836925,0.0001234,53.2154,214.4893,95.7523,264.361,-8.0099e-05,-1.562e-05,0.0,0 STARLINK-4764,1 53827U 22114K   23142.16256256 -.00001562  00000-0 -80099-4 0  9996,2 53827  53.2154 214.4893 0001234  95.7523 264.3610 15.08836925 37929,6917.89,95.438,540.608,538.901,0.0
53827.0,STARLINK-4764,PAYLOAD,2023-05-22 11:51:01,15.08833253,0.0001259,53.2149,213.0022,95.0717,265.0419,-0.000189,-3.294e-05,0.0,0 STARLINK-4764,1 53827U 22114K   23142.49376393 -.00003294  00000-0 -18900-3 0  9992,2 53827  53.2149 213.0022 0001259  95.0717 265.0419 15.08833253 38519,6917.901,95.438,540.637,538.895,0.0
53827.0,STARLINK-4764,PAYLOAD,2023-05-23 11:41:49,15.08793303,0.0001603,53.2163,208.5418,117.6388,242.4767,0.00062213,9.615e-05,0.0,0 STARLINK-4764,1 53827U 22114K   23143.48738141  .00009615  00000-0  62213-3 0  9992,2 53827  53.2163 208.5418 0001603 117.6388 242.4767 15.08793303 38124,6918.023,95.441,540.997,538.779,0.0
53827.0,STARLINK-4764,PAYLOAD,2023-05-23 21:14:07,15.08833886,0.0001166,53.2163,206.7576,104.2146,255.8976,0.00010899,1.447e-05,0.0,0 STARLINK-4764,1 53827U 22114K   23143.88481293  .00001447  00000-0  10899-3 0  9997,2 53827  53.2163 206.7576 0001166 104.2146 255.8976 15.08833886 38724,6917.899,95.438,540.571,538.957,0.0
53827.0,STARLINK-4764,PAYLOAD,2023-05-24 08:21:49,15.08835705,9.6e-05,53.2151,204.6749,97.2993,262.8108,0.00019462,2.811e-05,0.0,0 STARLINK-4764,1 53827U 22114K   23144.34849177  .00002811  00000-0  19462-3 0  9999,2 53827  53.2151 204.6749 0000960  97.2993 262.8108 15.08835705 38796,6917.894,95.438,540.423,539.094,0.0
53827.0,STARLINK-4764,PAYLOAD,2023-05-26 03:17:14,15.08841702,0.0001137,53.2148,196.6448,80.2879,279.8242,3.5837e-05,2.83e-06,0.0,0 STARLINK-4764,1 53827U 22114K   23146.13697551  .00000283  00000-0  35837-4 0  9991,2 53827  53.2148 196.6448 0001137  80.2879 279.8242 15.08841702 38522,6917.875,95.437,540.527,538.954,0.0
53827.0,STARLINK-4764,PAYLOAD,2023-05-26 09:38:47,15.08842014,0.0001164,53.2151,195.4561,76.973,283.1392,3.599e-05,2.85e-06,0.0,0 STARLINK-4764,1 53827U 22114K   23146.40193494  .00000285  00000-0  35990-4 0  9990,2 53827  53.2151 195.4561 0001164  76.9730 283.1392 15.08842014 39103,6917.874,95.437,540.544,538.934,0.0
53827.0,STARLINK-4764,PAYLOAD,2023-05-27 09:29:33,15.08841449,0.0001065,53.2148,190.9947,79.1607,280.9505,0.00010439,1.374e-05,0.0,0 STARLINK-4764,1 53827U 22114K   23147.39553203  .00001374  00000-0  10439-3 0  9997,2 53827  53.2148 190.9947 0001065  79.1607 280.9505 15.08841449 38713,6917.876,95.437,540.478,539.004,0.0
53827.0,STARLINK-4764,PAYLOAD,2023-05-28 06:09:35,15.08839105,0.0001078,53.2146,187.1288,82.5478,277.5636,3.9492e-05,3.41e-06,0.0,0 STARLINK-4764,1 53827U 22114K   23148.25665519  .00000341  00000-0  39492-4 0  9991,2 53827  53.2146 187.1288 0001078  82.5478 277.5636 15.08839105 39382,6917.883,95.438,540.494,539.002,0.0
53827.0,STARLINK-4764,PAYLOAD,2023-05-28 09:20:21,15.08840258,0.0001089,53.2147,186.5342,82.1631,277.9484,4.643e-05,4.51e-06,0.0,0 STARLINK-4764,1 53827U 22114K   23148.38913415  .00000451  00000-0  46430-4 0  9998,2 53827  53.2147 186.5342 0001089  82.1631 277.9484 15.08840258 38864,6917.88,95.438,540.498,538.991,0.0
53827.0,STARLINK-4764,PAYLOAD,2023-05-29 09:11:08,15.08841783,0.000109,53.2147,182.0738,81.0818,279.0298,4.2233e-05,3.84e-06,0.0,0 STARLINK-4764,1 53827U 22114K   23149.38273234  .00000384  00000-0  42233-4 0  9999,2 53827  53.2147 182.0738 0001090  81.0818 279.0298 15.08841783 39558,6917.875,95.437,540.494,538.986,0.0
53827.0,STARLINK-4764,PAYLOAD,2023-05-29 18:43:27,15.08837827,0.0001092,53.2144,180.289,79.84,280.2715,1.2394e-05,-9.1e-07,0.0,0 STARLINK-4764,1 53827U 22114K   23149.78017553 -.00000091  00000-0  12394-4 0  9994,2 53827  53.2144 180.2890 0001092  79.8400 280.2715 15.08837827 39617,6917.887,95.438,540.507,538.997,0.0
53827.0,STARLINK-4764,PAYLOAD,2023-05-29 23:29:36,15.0883353,0.0001118,53.2148,179.3976,90.0604,270.0516,1.2956e-05,-8.2e-07,0.0,0 STARLINK-4764,1 53827U 22114K   23149.97889838 -.00000082  00000-0  12956-4 0  9992,2 53827  53.2148 179.3976 0001118  90.0604 270.0516 15.08833530 39102,6917.9,95.438,540.539,538.992,0.0
53827.0,STARLINK-4764,PAYLOAD,2023-05-30 09:01:55,15.08832101,0.0001103,53.2148,177.6132,89.2605,270.8514,-2.4572e-06,-3.27e-06,0.0,0 STARLINK-4764,1 53827U 22114K   23150.37634107 -.00000327  00000-0 -24572-5 0  9996,2 53827  53.2148 177.6132 0001103  89.2605 270.8514 15.08832101 39707,6917.905,95.438,540.533,539.006,0.0
53827.0,STARLINK-4764,PAYLOAD,2023-05-30 18:34:14,15.08835274,0.0001097,53.215,175.829,88.4721,271.6397,1.4113e-05,-6.3e-07,0.0,0 STARLINK-4764,1 53827U 22114K   23150.77377991 -.00000063  00000-0  14113-4 0  9990,2 53827  53.2150 175.8290 0001097  88.4721 271.6397 15.08835274 39765,6917.895,95.438,540.519,539.001,0.0
53827.0,STARLINK-4764,PAYLOAD,2023-05-31 10:28:05,15.08839177,0.0001091,53.2148,172.855,87.3472,272.7645,4.2474e-05,3.88e-06,0.0,0 STARLINK-4764,1 53827U 22114K   23151.43617787  .00000388  00000-0  42474-4 0  9994,2 53827  53.2148 172.8550 0001091  87.3472 272.7645 15.08839177 39329,6917.883,95.438,540.503,538.993,0.0
53827.0,STARLINK-4764,PAYLOAD,2023-05-31 18:25:01,15.088383,0.0001064,53.2149,171.3688,86.6892,273.4222,6.091e-05,6.82e-06,0.0,0 STARLINK-4764,1 53827U 22114K   23151.76737822  .00000682  00000-0  60910-4 0  9995,2 53827  53.2149 171.3688 0001064  86.6892 273.4222 15.08838300 39915,6917.886,95.438,540.487,539.015,0.0
53827.0,STARLINK-4764,PAYLOAD,2023-06-01 08:43:29,15.08839751,0.0001059,53.2147,168.691,84.0891,276.0222,0.00011219,1.498e-05,0.0,0 STARLINK-4764,1 53827U 22114K   23152.36353686  .00001498  00000-0  11219-3 0  9997,2 53827  53.2147 168.6910 0001059  84.0891 276.0222 15.08839751 40007,6917.881,95.438,540.479,539.014,0.0
53827.0,STARLINK-4764,PAYLOAD,2023-06-02 10:09:39,15.08840465,0.0001077,53.215,163.9338,85.1986,274.9129,3.8367e-05,3.23e-06,0.0,0 STARLINK-4764,1 53827U 22114K   23153.42337892  .00000323  00000-0  38367-4 0  9996,2 53827  53.2150 163.9338 0001077  85.1986 274.9129 15.08840465 39623,6917.879,95.438,540.489,538.999,0.0
53827.0,STARLINK-4764,PAYLOAD,2023-06-02 18:06:35,15.08840343,0.0001078,53.215,162.4469,84.8698,275.2417,3.5194e-05,2.72e-06,0.0,0 STARLINK-4764,1 53827U 22114K   23153.75457930  .00000272  00000-0  35194-4 0  9996,2 53827  53.2150 162.4469 0001078  84.8698 275.2417 15.08840343 40215,6917.879,95.438,540.49,538.999,0.0
53827.0,STARLINK-4764,PAYLOAD,2023-06-03 10:00:26,15.08840768,0.0001058,53.2149,159.4726,87.7782,272.3331,2.712e-05,1.44e-06,0.0,0 STARLINK-4764,1 53827U 22114K   23154.41697868  .00000144  00000-0  27120-4 0  9994,2 53827  53.2149 159.4726 0001058  87.7782 272.3331 15.08840768 40314,6917.878,95.438,540.475,539.011,0.0
53827.0,STARLINK-4764,PAYLOAD,2023-06-03 17:57:22,15.08839983,0.0001053,53.215,157.9859,86.6389,273.4724,3.0241e-05,1.94e-06,0.0,0 STARLINK-4764,1 53827U 22114K   23154.74817873  .00000194  00000-0  30241-4 0  9993,2 53827  53.2150 157.9859 0001053  86.6389 273.4724 15.08839983 39821,6917.88,95.438,540.474,539.017,0.0
53827.0,STARLINK-4764,PAYLOAD,2023-06-04 06:40:27,15.08839403,0.0001066,53.2153,155.6072,86.4674,273.644,3.8196e-05,3.2e-06,0.0,0 STARLINK-4764,1 53827U 22114K   23155.27809942  .00000320  00000-0  38196-4 0  9998,2 53827  53.2153 155.6072 0001066  86.4674 273.6440 15.08839403 40449,6917.882,95.438,540.485,539.01,0.0
53827.0,STARLINK-4764,PAYLOAD,2023-06-04 19:23:33,15.08837157,0.0001053,53.2153,153.2284,85.488,274.6232,3.6839e-05,2.99e-06,0.0,0 STARLINK-4764,1 53827U 22114K   23155.80802107  .00000299  00000-0  36839-4 0  9990,2 53827  53.2153 153.2284 0001053  85.4880 274.6232 15.08837157 40525,6917.889,95.438,540.483,539.026,0.0
53827.0,STARLINK-4764,PAYLOAD,2023-06-05 04:55:51,15.08836613,0.0001064,53.2152,151.4441,85.4929,274.6184,1.8799e-05,1.1e-07,0.0,0 STARLINK-4764,1 53827U 22114K   23156.20546256  .00000011  00000-0  18799-4 0  9992,2 53827  53.2152 151.4441 0001064  85.4929 274.6184 15.08836613 40044,6917.891,95.438,540.492,539.02,0.0
53827.0,STARLINK-4764,PAYLOAD,2023-06-05 09:42:01,15.08837776,0.0001073,53.2152,150.5519,85.4392,274.6723,2.8938e-05,1.73e-06,0.0,0 STARLINK-4764,1 53827U 22114K   23156.40418171  .00000173  00000-0  28938-4 0  9993,2 53827  53.2152 150.5519 0001073  85.4392 274.6723 15.08837776 40617,6917.887,95.438,540.494,539.01,0.0
53827.0,STARLINK-4764,PAYLOAD,2023-06-05 19:14:20,15.08836491,0.0001081,53.2151,148.7677,85.0257,275.0859,3.0047e-05,1.9e-06,0.0,0 STARLINK-4764,1 53827U 22114K   23156.80162331  .00000190  00000-0  30047-4 0  9994,2 53827  53.2151 148.7677 0001081  85.0257 275.0859 15.08836491 40679,6917.891,95.438,540.504,539.008,0.0
53827.0,STARLINK-4764,PAYLOAD,2023-06-06 04:46:39,15.08837541,0.0001083,53.2151,146.9834,84.6091,275.5025,4.1033e-05,3.65e-06,0.0,0 STARLINK-4764,1 53827U 22114K   23157.19906304  .00000365  00000-0  41033-4 0  9994,2 53827  53.2151 146.9834 0001083  84.6091 275.5025 15.08837541 40731,6917.888,95.438,540.502,539.004,0.0
53827.0,STARLINK-4764,PAYLOAD,2023-06-06 23:51:17,15.08833985,0.0001137,53.2152,143.4144,97.1275,262.9846,3.0567e-05,1.99e-06,0.0,0 STARLINK-4764,1 53827U 22114K   23157.99394719  .00000199  00000-0  30567-4 0  9998,2 53827  53.2152 143.4144 0001137  97.1275 262.9846 15.08833985 40314,6917.899,95.438,540.55,538.977,0.0
